#aV2023  7 17  0  0  0.00000000     288 DD+AD WGS84 FIT  NGA
## 2271  86400.00000000   300.00000000 60142 0.0000000000000
+   32     1  2  3  4  5  6  7  8  9 10 11 12 13 14 15 16 17
+         18 19 20 21 22 23 24 25 26 27 28 29 30 31 32  0  0
+          0  0  0  0  0  0  0  0  0  0  0  0  0  0  0  0  0
+          0  0  0  0  0  0  0  0  0  0  0  0  0  0  0  0  0
+          0  0  0  0  0  0  0  0  0  0  0  0  0  0  0  0  0
++         2  2  2  2  2  2  2  2  2  2  2  2  2  2  2  2  2
++         2  2  2  2  2  2  2  2  2  2  2  2  2  2  2  0  0
++         0  0  0  0  0  0  0  0  0  0  0  0  0  0  0  0  0
++         0  0  0  0  0  0  0  0  0  0  0  0  0  0  0  0  0
++         0  0  0  0  0  0  0  0  0  0  0  0  0  0  0  0  0
%c cc cc ccc ccc cccc cccc cccc cccc ccccc ccccc ccccc ccccc
%c cc cc ccc ccc cccc cccc cccc cccc ccccc ccccc ccccc ccccc
%f  0.0000000  0.000000000  0.00000000000  0.000000000000000
%f  0.0000000  0.000000000  0.00000000000  0.000000000000000
%i    0    0    0    0      0      0      0      0         0
%i    0    0    0    0      0      0      0      0         0
/*      NGA, ST. LOUIS,MO.                                  
/*   EPHEMERIS COMPUTED FROM 2 DAYS OF DATA                 
/*   EPOCHA v8 SMOOTHER                                     
/*   G2139 IERS2010 SATIGS SATAPC                           
*  2023  7 17  6 15  0.00000000
P  1   -998.227436 -14887.587517 -22288.365441    172.635185                    
V  1  26560.964203  -6833.878988   3760.334971     -0.018509                    
P  2   5908.086699 -16538.524775 -19372.343562   -575.340880                    
V  2  24525.190738  -7902.742600  14019.219392      0.038737                    
P  3  -9998.421019 -21314.614376 -12551.213591   -229.176316                    
V  3  12442.193672   9620.743506 -26433.190061      0.160218                    
P  4  -1070.164086 -24125.022691  10935.136156     98.076984                    
V  4   6150.715788 -12711.644071 -27582.434358      0.109031                    
P  5  -4808.544364  15131.860704  21092.885513   -135.198200                    
V  5 -20937.515449 -17389.155731   7744.165713     -0.014693                    
P  6 -25923.453670   5025.613740  -3247.472746    577.149585                    
V  6   3529.993867  -2878.167982 -31958.072118     -0.036686                    
P  7 -17521.543652  -8801.547389  18597.811312    122.814951                    
V  7  21292.758277  -7462.540200  16480.288901     -0.109612                    
P  8   5875.148133 -25675.343670    441.254407   -132.586632                    
V  8   3031.811891   1326.381223  31951.981336     -0.019258                    
P  9  -8842.578175 -17644.360368  17676.841168   -110.239831                    
V  9   6621.682611 -21707.099365 -18317.752172      0.093547                    
P 10  21488.714345   8078.351378 -13450.565626    -45.477879                    
V 10  11333.424980  13061.013366  25305.809127     -0.015088                    
P 11 -20525.897408  12704.529964  11035.544692   -279.466398                    
V 11 -14172.679933    945.224795 -27510.271367     -0.162778                    
P 12   5370.638651  21453.590500 -15039.152368   -401.656497                    
V 12 -13823.260492 -12541.372389 -23179.251066     -0.046154                    
P 13 -13392.673425  21857.889429   6328.742397    548.155235                    
V 13    650.117631  -8693.803428  30725.332479      0.049669                    
P 14 -21687.428364 -10848.903413 -11003.666571    124.815070                    
V 14  -7881.416541 -11832.856634  26992.985508      0.120054                    
P 15  -2121.780973  26334.013652   -669.107247     58.775278                    
V 15  -3921.215228    -78.752446  31281.926078      0.035597                    
P 16  10155.079771 -11096.425132  21563.175321   -479.829750                    
V 16  18792.131475  20934.612321   2335.141981      0.044424                    
P 17 -15082.091156   -577.141033 -21434.240478    721.105209                    
V 17   8076.463995 -27018.634083  -4755.769906      0.007645                    
P 18  19499.134931   6611.211318  16870.287091   -348.487488                    
V 18 -20212.892094   6957.104701  20470.837338     -0.141709                    
P 19 -16679.034919   6846.256508 -19605.326992    344.970370                    
V 19   7187.106541 -23459.194570 -14781.368243      0.051402                    
P 20 -13824.575994   8735.520029  20929.356904    422.251781                    
V 20 -21506.685250 -15636.938039  -7876.525420     -0.020457                    
P 21   8265.171419 -16691.711830 -18036.305292    152.056186                    
V 21  23466.471698  -6791.154283  17413.856383     -0.004547                    
P 22  16360.796555 -11064.246271 -17229.862387    513.901762                    
V 22  -5501.257869  22233.488260 -19158.753311      0.054898                    
P 23  20712.396435  16598.786946  -2375.999248     44.156286                    
V 23    728.843558   3667.192389  31766.147695      0.041858                    
P 24  -2895.081556  17229.705151 -20262.235999   -260.372738                    
V 24 -23927.715179   7841.354366  10695.236476     -0.122668                    
P 25  16668.038799  20353.927895  -4887.670476    456.599125                    
V 25  -6091.663316  -1945.088751 -30597.385966      0.023346                    
P 26  18718.278682  -2414.106048  18698.443225    236.215682                    
V 26  17368.473009  16596.214144 -14804.944922     -0.011770                    
P 27  12681.084511 -20191.504860  11005.049115     -4.683932                    
V 27   -844.030780  14703.290132  27726.496345     -0.075822                    
P 28  25634.918247  -4506.259318  -5307.007892     82.233653                    
V 28  -5528.897274   4686.567823 -30803.237862     -0.015214                    
P 29   6049.390929  19117.932454  17314.382953   -605.688790                    
V 29  -8321.723751  20516.344579 -19783.061503     -0.009294                    
P 30 -23987.923852  -2140.532423  11612.136767   -503.687288                    
V 30  13207.841760  -6660.561576  26068.971201      0.027925                    
P 31  23955.051126 -10490.251785   5612.424983   -220.199760                    
V 31   7701.537117    654.230202 -30261.696253     -0.007109                    
P 32  15742.130334  -2705.209594 -21007.838284   -522.697209                    
V 32  -5471.915775  26588.882420  -7653.428265     -0.076136                    
EOF
